ONEWEB-0190             
1 48796U 21045AF  24198.59435174 -.00000114  00000+0 -33677-3 0  9994
2 48796  87.9019  38.6183 0002008  55.9676 304.1644 13.15548718152257
ONEWEB-0248             
1 48798U 21045AH  24198.92868729  .00000013  00000+0  66998-6 0  9990
2 48798  87.9018  38.5349 0001294  61.1837 298.9423 13.15546617152346
ONEWEB-0215             
1 48800U 21045AK  24198.92076309  .00000079  00000+0  17628-3 0  9994
2 48800  87.9015  38.5223 0001560  54.1547 305.9729 13.15548134152225
ONEWEB-0216             
1 48801U 21045AL  24198.93027178  .00000108  00000+0  25341-3 0  9990
2 48801  87.9017  38.5617 0002052  81.9507 278.1856 13.15547165152232
ONEWEB-0239             
1 48802U 21045AM  24198.93502339  .00000191  00000+0  47220-3 0  9990
2 48802  87.9027  38.5390 0001296  53.3371 306.7878 13.15548256152271
